ONEWEB-0171             
1 48070U 21025AE  25033.14090852  .00000285  00000+0  74478-3 0  9998
2 48070  87.8881  59.6715 0001926  95.9560 264.1789 13.13470111187977
ONEWEB-0172             
1 48071U 21025AF  25033.12028592  .00000201  00000+0  51407-3 0  9994
2 48071  87.8877  59.6416 0002046  94.3533 265.7830 13.13471009188868
ONEWEB-0174             
1 48072U 21025AG  25033.48371187 -.00000248  00000+0 -71364-3 0  9992
2 48072  87.8873  59.5818 0001826  87.3631 272.7707 13.13470554188232
ONEWEB-0175             
1 48073U 21025AH  25032.52197424  .00000357  00000+0  94224-3 0  9996
2 48073  87.8872  59.7504 0001978 103.7634 256.3716 13.13469595187768
ONEWEB-0177             
1 48074U 21025AJ  25033.06789856  .00000272  00000+0  70905-3 0  9999
2 48074  87.8877  59.6528 0002115  87.2008 272.9363 13.13471009188029
ONEWEB-0178             
1 48075U 21025AK  25032.47607877 -.00000262  00000+0 -75318-3 0  9990
2 48075  87.8888  59.8048 0002096  90.4745 269.6625 13.13470068187996
ONEWEB-0108             
1 48076U 21025AL  25033.12185646  .00000211  00000+0  54208-3 0  9996
2 48076  87.8875  59.6379 0001641  91.7039 268.4278 13.13471745188011
ONEWEB-0169             
1 48077U 21025AM  25033.53449694  .00000082  00000+0  18873-3 0  9992
2 48077  87.8879  59.5715 0001576  91.0034 269.1276 13.13469967187955
